CENTISPACE-1 GROUP 05 O*
1 69636U 26138J   26194.40472368 -.00000256  00000+0 -51944-4 0  9997
2 69636  55.1383 184.3032 0009547 341.3483  18.7141 14.15842380  3707
VICTUS HAZE PUMA        
1 69646U 26142A   26194.66617709  .00002127  00000+0  98816-4 0  9997
2 69646  97.4471  91.9874 0025032 271.5686  88.2682 15.20841534  3695
HOKUSHIN-1              
1 69648U 98067YH  26193.97333506  .00017654  00000+0  30626-3 0  9992
2 69648  51.6302 172.2596 0006128 322.5692  37.4870 15.50931223  3654
STARLINK-37656          
1 69649U 26143A   26194.66624595  .00023014  00000+0  42343-3 0  9993
2 69649  97.2838 238.5343 0000704  99.9676 260.1655 15.49199198  4643
STARLINK-37646          
1 69650U 26143B   26194.83335647  .00003533  00000+0  66502-4 0  9999
2 69650  97.2851 238.8814 0001905  83.2697 179.0252 15.49228191  4747
STARLINK-37749          
1 69651U 26143C   26194.83335647 -.00008112  00000+0 -14760-3 0  9998
2 69651  97.2850 238.8629 0000914 118.0240 106.0157 15.49198335  4741
STARLINK-37819          
1 69652U 26143D   26194.83335647 -.00013130  00000+0 -24004-3 0  9997
2 69652  97.2847 238.8370 0001299  76.3203  83.2214 15.49201513  4746
STARLINK-37729          
1 69653U 26143E   26194.61052425  .00334558  00000+0  14872-2 0  9993
2 69653  97.2828 238.9182 0001456 210.7988 149.3196 15.83473366  4666
STARLINK-37838          
1 69654U 26143F   26194.83335647 -.00010547  00000+0 -19244-3 0  9998
2 69654  97.2841 238.9061 0001442  66.6786 257.8811 15.49199977  4740
STARLINK-37884          
1 69655U 26143G   26194.68392897  .00026432  00000+0  48596-3 0  9992
2 69655  97.2833 238.6632 0001947  88.7377 271.4097 15.49192781  4658
STARLINK-37876          
1 69656U 26143H   26194.83335647 -.00007238  00000+0 -13149-3 0  9991
2 69656  97.2843 238.9060 0001464  95.2903 226.8586 15.49201100  4642
STARLINK-37784          
1 69657U 26143J   26194.83335647 -.00012879  00000+0 -23540-3 0  9995
2 69657  97.2847 238.8344 0001311  81.7636  72.8322 15.49203909  4641
STARLINK-37851          
1 69658U 26143K   26194.83335647 -.00006720  00000+0 -12195-3 0  9998
2 69658  97.2843 238.9003 0001055  97.8923 212.2580 15.49199998  4630
STARLINK-37229          
1 69659U 26143L   26194.83335647 -.00006256  00000+0 -11342-3 0  9996
2 69659  97.2852 238.8538 0001368  96.6488 104.8402 15.49198702  4689
STARLINK-37556          
1 69660U 26143M   26194.83335647 -.00455392  00000+0 -88085-2 0  9994
2 69660  97.2929 238.8807 0001594 109.4456 155.9543 15.49369210  4681
STARLINK-37867          
1 69661U 26143N   26194.83335647 -.00005024  00000+0 -90743-4 0  9994
2 69661  97.2844 238.9007 0001839  87.5620 221.1112 15.49195521  4648
STARLINK-37852          
1 69662U 26143P   26194.83335647 -.00014838  00000+0 -27157-3 0  9996
2 69662  97.2846 238.8243 0001346  96.4476  35.2376 15.49200321  4644
STARLINK-37554          
1 69663U 26143Q   26194.83335647  .00000280  00000+0  67996-5 0  9998
2 69663  97.2853 238.8773 0000996  86.6748 169.2645 15.49197775  4683
STARLINK-37830          
1 69664U 26143R   26194.83335647 -.00007536  00000+0 -13695-3 0  9997
2 69664  97.2849 238.8411 0001653  88.9452  82.7447 15.49204905  4634
STARLINK-37837          
1 69665U 26143S   26194.83335647 -.02871912  00000+0 -73107-1 0  9999
2 69665  97.2849 238.8999 0001456  98.6793 202.9493 15.43150487  4640
STARLINK-37943          
1 69666U 26143T   26194.83335647 -.00012384  00000+0 -22628-3 0  9992
2 69666  97.2850 238.8426 0001613  89.4086  85.2466 15.49202863  4640
STARLINK-37941          
1 69667U 26143U   26194.83335647 -.00001857  00000+0 -32485-4 0  9999
2 69667  97.2853 238.8720 0001151  81.1994 163.8279 15.49199155  4649
STARLINK-37930          
1 69668U 26143V   26194.83335647 -.00002763  00000+0 -49138-4 0  9990
2 69668  97.2851 238.8733 0001273  86.2056 161.8194 15.49198942  4638
STARLINK-37945          
1 69669U 26143W   26194.83335647 -.00001557  00000+0 -26954-4 0  9992
2 69669  97.2844 238.9045 0001408  93.3871 226.5283 15.49203526  4646
STARLINK-37948          
1 69670U 26143X   26194.63010270  .00029336  00000+0  53877-3 0  9990
2 69670  97.2859 238.5855 0000298   4.8787 355.2467 15.49204498  4573
STARLINK-37949          
1 69671U 26143Y   26194.83335647 -.00006819  00000+0 -12376-3 0  9993
2 69671  97.2850 238.8487 0000745  87.2751 101.6410 15.49203385  4645
STARLINK-37946          
1 69672U 26143Z   26194.83335647 -.00001801  00000+0 -31449-4 0  9993
2 69672  97.2851 238.8828 0001378  83.4775 183.0913 15.49199003  4646
TJS-26A                 
1 69674U 26144A   26193.29904564 -.00000341  00000+0  00000+0 0  9996
2 69674   6.9538 323.2302 0004208 347.4913 194.6526  1.00274367   198
