OBJECT_NAME,OBJECT_ID,EPOCH,MEAN_MOTION,ECCENTRICITY,INCLINATION,RA_OF_ASC_NODE,ARG_OF_PERICENTER,MEAN_ANOMALY,EPHEMERIS_TYPE,CLASSIFICATION_TYPE,NORAD_CAT_ID,ELEMENT_SET_NO,REV_AT_EPOCH,BSTAR,MEAN_MOTION_DOT,MEAN_MOTION_DDOT
CENTISPACE-1 GROUP 05 OBJECT J,2026-138J,2026-07-13T09:42:48.125952,14.15842380,.00095471,55.1383,184.3032,341.3483,18.7141,0,U,69636,999,370,-.51944164E-4,-.256E-5,0
VICTUS HAZE PUMA,2026-142A,2026-07-13T15:59:17.700576,15.20841534,.0025032,97.4471,91.9874,271.5686,88.2682,0,U,69646,999,369,.98816E-4,.2127E-4,0
HOKUSHIN-1,1998-067YH,2026-07-12T23:21:36.149184,15.50931223,.00061287,51.6302,172.2596,322.5692,37.4870,0,U,69648,999,365,.30625514E-3,.17654E-3,0
STARLINK-37656,2026-143A,2026-07-13T15:59:23.650080,15.49199198,.0000704,97.2838,238.5343,99.9676,260.1655,0,U,69649,999,464,.42343E-3,.23014E-3,0
STARLINK-37646,2026-143B,2026-07-13T20:00:01.999008,15.49228191,.0001905,97.2851,238.8814,83.2697,179.0252,0,U,69650,999,474,.66502E-4,.3533E-4,0
STARLINK-37749,2026-143C,2026-07-13T20:00:01.999008,15.49198335,.0000914,97.2850,238.8629,118.0240,106.0157,0,U,69651,999,474,-.1476E-3,-.8112E-4,0
STARLINK-37819,2026-143D,2026-07-13T20:00:01.999008,15.49201513,.0001299,97.2847,238.8370,76.3203,83.2214,0,U,69652,999,474,-.24004E-3,-.1313E-3,0
STARLINK-37729,2026-143E,2026-07-13T14:39:09.295200,15.83473366,.0001456,97.2828,238.9182,210.7988,149.3196,0,U,69653,999,466,.14872E-2,.334558E-2,0
STARLINK-37838,2026-143F,2026-07-13T20:00:01.999008,15.49199977,.0001442,97.2841,238.9061,66.6786,257.8811,0,U,69654,999,474,-.19244E-3,-.10547E-3,0
STARLINK-37884,2026-143G,2026-07-13T16:24:51.463008,15.49192781,.0001947,97.2833,238.6632,88.7377,271.4097,0,U,69655,999,465,.48596E-3,.26432E-3,0
STARLINK-37876,2026-143H,2026-07-13T20:00:01.999008,15.49201100,.0001464,97.2843,238.9060,95.2903,226.8586,0,U,69656,999,464,-.13149E-3,-.7238E-4,0
STARLINK-37784,2026-143J,2026-07-13T20:00:01.999008,15.49203909,.0001311,97.2847,238.8344,81.7636,72.8322,0,U,69657,999,464,-.2354E-3,-.12879E-3,0
STARLINK-37851,2026-143K,2026-07-13T20:00:01.999008,15.49199998,.0001055,97.2843,238.9003,97.8923,212.2580,0,U,69658,999,463,-.12195E-3,-.672E-4,0
STARLINK-37229,2026-143L,2026-07-13T20:00:01.999008,15.49198702,.0001368,97.2852,238.8538,96.6488,104.8402,0,U,69659,999,468,-.11342E-3,-.6256E-4,0
STARLINK-37556,2026-143M,2026-07-13T20:00:01.999008,15.49369210,.0001594,97.2929,238.8807,109.4456,155.9543,0,U,69660,999,468,-.88085E-2,-.455392E-2,0
STARLINK-37867,2026-143N,2026-07-13T20:00:01.999008,15.49195521,.0001839,97.2844,238.9007,87.5620,221.1112,0,U,69661,999,464,-.90743E-4,-.5024E-4,0
STARLINK-37852,2026-143P,2026-07-13T20:00:01.999008,15.49200321,.0001346,97.2846,238.8243,96.4476,35.2376,0,U,69662,999,464,-.27157E-3,-.14838E-3,0
STARLINK-37554,2026-143Q,2026-07-13T20:00:01.999008,15.49197775,.0000996,97.2853,238.8773,86.6748,169.2645,0,U,69663,999,468,.67996E-5,.28E-5,0
STARLINK-37830,2026-143R,2026-07-13T20:00:01.999008,15.49204905,.0001653,97.2849,238.8411,88.9452,82.7447,0,U,69664,999,463,-.13695E-3,-.7536E-4,0
STARLINK-37837,2026-143S,2026-07-13T20:00:01.999008,15.43150487,.0001456,97.2849,238.8999,98.6793,202.9493,0,U,69665,999,464,-.73107E-1,-.2871912E-1,0
STARLINK-37943,2026-143T,2026-07-13T20:00:01.999008,15.49202863,.0001613,97.2850,238.8426,89.4086,85.2466,0,U,69666,999,464,-.22628E-3,-.12384E-3,0
STARLINK-37941,2026-143U,2026-07-13T20:00:01.999008,15.49199155,.0001151,97.2853,238.8720,81.1994,163.8279,0,U,69667,999,464,-.32485E-4,-.1857E-4,0
STARLINK-37930,2026-143V,2026-07-13T20:00:01.999008,15.49198942,.0001273,97.2851,238.8733,86.2056,161.8194,0,U,69668,999,463,-.49138E-4,-.2763E-4,0
STARLINK-37945,2026-143W,2026-07-13T20:00:01.999008,15.49203526,.0001408,97.2844,238.9045,93.3871,226.5283,0,U,69669,999,464,-.26954E-4,-.1557E-4,0
STARLINK-37948,2026-143X,2026-07-13T15:07:20.873280,15.49204498,.0000298,97.2859,238.5855,4.8787,355.2467,0,U,69670,999,457,.53877E-3,.29336E-3,0
STARLINK-37949,2026-143Y,2026-07-13T20:00:01.999008,15.49203385,.0000745,97.2850,238.8487,87.2751,101.6410,0,U,69671,999,464,-.12376E-3,-.6819E-4,0
STARLINK-37946,2026-143Z,2026-07-13T20:00:01.999008,15.49199003,.0001378,97.2851,238.8828,83.4775,183.0913,0,U,69672,999,464,-.31449E-4,-.1801E-4,0
TJS-26A,2026-144A,2026-07-12T07:10:37.543296,1.00274367,.0004208,6.9538,323.2302,347.4913,194.6526,0,U,69674,999,19,0,-.341E-5,0
